KUIPER-00102            
1 65140U 25171J   26064.56334712  .00007189  00000+0  96948-3 0  9994
2 65140  51.8985 171.3240 0000620  95.0799 265.0234 14.79997545 32343
KUIPER-00103            
1 65141U 25171K   26064.71338896 -.00016198  00000+0 -21011-2 0  9999
2 65141  51.8991 188.1527 0001908 130.3575 229.7554 14.79926271 32126
KUIPER-00104            
1 65142U 25171L   26064.79435853  .00007044  00000+0  95246-3 0  9999
2 65142  51.9026 175.2569 0000635  71.7620 288.3412 14.79916014 32314
KUIPER-00105            
1 65143U 25171M   26064.61723015  .00006959  00000+0  94298-3 0  9991
2 65143  51.8998 183.6584 0001383  96.1505 263.9615 14.79837152 32180
KUIPER-00106            
1 65144U 25171N   26064.63840291  .00008990  00000+0  79045-3 0  9990
2 65144  51.8934 173.3807 0007966  86.0846 274.1034 14.97166678 32338
KUIPER-00107            
1 65145U 25171P   26064.56886313  .00007468  00000+0  10058-2 0  9995
2 65145  51.9009 166.3150 0000308  28.6535 331.4444 14.80005909 32429
KUIPER-00108            
1 65146U 25171Q   26064.72419747  .00001748  00000+0  25824-3 0  9990
2 65146  51.9074 178.1440 0001096 156.2349 203.8665 14.79933049 32274
KUIPER-00109            
1 65147U 25171R   26064.49322755 -.00000417  00000+0 -25756-4 0  9996
2 65147  51.9010 174.1066 0000462  50.7439 309.3565 14.79928333 32304
KUIPER-00110            
1 65148U 25171S   26064.58212721  .00006754  00000+0  91410-3 0  9995
2 65148  51.9001 186.3117 0001951 177.5300 182.5672 14.79934190 32135
KUIPER-00111            
1 65149U 25171T   26064.54163926  .00006520  00000+0  88150-3 0  9992
2 65149  51.8967 191.3870 0001881 141.7197 218.3899 14.80024692 32067
KUIPER-00112            
1 65150U 25171U   26064.59452747  .00006899  00000+0  93141-3 0  9996
2 65150  51.9027 173.7139 0000291  91.0375 269.0621 14.80004397 32312
KUIPER-00114            
1 65151U 25171V   26064.60671315 -.00003937  00000+0 -48775-3 0  9998
2 65151  51.9004 193.6577 0001229 136.0472 224.0588 14.79925970 32034
KUIPER-00115            
1 65152U 25171W   26064.54713445  .00001151  00000+0  17988-3 0  9999
2 65152  51.8979 186.4028 0000643 104.1536 255.9498 14.79944108 32130
KUIPER-00116            
1 65153U 25171X   26064.64315931  .00007202  00000+0  97273-3 0  9997
2 65153  51.8999 191.0223 0001073 131.9516 228.1538 14.79931574 32079
KUIPER-00118            
1 65154U 25171Y   26064.77528331  .00006986  00000+0  94244-3 0  9995
2 65154  51.8995 192.8917 0000519  77.6506 282.4515 14.80022553 32061
KUIPER-00119            
1 65155U 25171Z   26064.58639015  .00006543  00000+0  88522-3 0  9998
2 65155  51.9015 181.3145 0001057 141.5889 218.5148 14.79989654 32205
KUIPER-00120            
1 65762U 25217A   26064.75001156 -.00022077  00000+0 -28731-2 0  9998
2 65762  51.8980  70.4894 0000391 103.8578 226.2558 14.79982518  3845
