[{"OBJECT_NAME":"KUIPER-00102","OBJECT_ID":"2025-171J","EPOCH":"2026-03-05T13:31:13.191168","MEAN_MOTION":14.79997545,"ECCENTRICITY":6.2e-5,"INCLINATION":51.8985,"RA_OF_ASC_NODE":171.324,"ARG_OF_PERICENTER":95.0799,"MEAN_ANOMALY":265.0234,"EPHEMERIS_TYPE":0,"CLASSIFICATION_TYPE":"U","NORAD_CAT_ID":65140,"ELEMENT_SET_NO":999,"REV_AT_EPOCH":3234,"BSTAR":0.00096948,"MEAN_MOTION_DOT":7.189e-5,"MEAN_MOTION_DDOT":0},{"OBJECT_NAME":"KUIPER-00103","OBJECT_ID":"2025-171K","EPOCH":"2026-03-05T17:07:16.806144","MEAN_MOTION":14.79926271,"ECCENTRICITY":0.0001908,"INCLINATION":51.8991,"RA_OF_ASC_NODE":188.1527,"ARG_OF_PERICENTER":130.3575,"MEAN_ANOMALY":229.7554,"EPHEMERIS_TYPE":0,"CLASSIFICATION_TYPE":"U","NORAD_CAT_ID":65141,"ELEMENT_SET_NO":999,"REV_AT_EPOCH":3212,"BSTAR":-0.0021011,"MEAN_MOTION_DOT":-0.00016198,"MEAN_MOTION_DDOT":0},{"OBJECT_NAME":"KUIPER-00104","OBJECT_ID":"2025-171L","EPOCH":"2026-03-05T19:03:52.576992","MEAN_MOTION":14.79916014,"ECCENTRICITY":6.35e-5,"INCLINATION":51.9026,"RA_OF_ASC_NODE":175.2569,"ARG_OF_PERICENTER":71.762,"MEAN_ANOMALY":288.3412,"EPHEMERIS_TYPE":0,"CLASSIFICATION_TYPE":"U","NORAD_CAT_ID":65142,"ELEMENT_SET_NO":999,"REV_AT_EPOCH":3231,"BSTAR":0.00095246,"MEAN_MOTION_DOT":7.044e-5,"MEAN_MOTION_DDOT":0},{"OBJECT_NAME":"KUIPER-00105","OBJECT_ID":"2025-171M","EPOCH":"2026-03-05T14:48:48.684960","MEAN_MOTION":14.79837152,"ECCENTRICITY":0.0001383,"INCLINATION":51.8998,"RA_OF_ASC_NODE":183.6584,"ARG_OF_PERICENTER":96.1505,"MEAN_ANOMALY":263.9615,"EPHEMERIS_TYPE":0,"CLASSIFICATION_TYPE":"U","NORAD_CAT_ID":65143,"ELEMENT_SET_NO":999,"REV_AT_EPOCH":3218,"BSTAR":0.00094298,"MEAN_MOTION_DOT":6.959e-5,"MEAN_MOTION_DDOT":0},{"OBJECT_NAME":"KUIPER-00106","OBJECT_ID":"2025-171N","EPOCH":"2026-03-05T15:19:18.011424","MEAN_MOTION":14.97166678,"ECCENTRICITY":0.0007966,"INCLINATION":51.8934,"RA_OF_ASC_NODE":173.3807,"ARG_OF_PERICENTER":86.0846,"MEAN_ANOMALY":274.1034,"EPHEMERIS_TYPE":0,"CLASSIFICATION_TYPE":"U","NORAD_CAT_ID":65144,"ELEMENT_SET_NO":999,"REV_AT_EPOCH":3233,"BSTAR":0.00079045,"MEAN_MOTION_DOT":8.99e-5,"MEAN_MOTION_DDOT":0},{"OBJECT_NAME":"KUIPER-00107","OBJECT_ID":"2025-171P","EPOCH":"2026-03-05T13:39:09.774432","MEAN_MOTION":14.80005909,"ECCENTRICITY":3.08e-5,"INCLINATION":51.9009,"RA_OF_ASC_NODE":166.315,"ARG_OF_PERICENTER":28.6535,"MEAN_ANOMALY":331.4444,"EPHEMERIS_TYPE":0,"CLASSIFICATION_TYPE":"U","NORAD_CAT_ID":65145,"ELEMENT_SET_NO":999,"REV_AT_EPOCH":3242,"BSTAR":0.0010058,"MEAN_MOTION_DOT":7.468e-5,"MEAN_MOTION_DDOT":0},{"OBJECT_NAME":"KUIPER-00108","OBJECT_ID":"2025-171Q","EPOCH":"2026-03-05T17:22:50.661408","MEAN_MOTION":14.79933049,"ECCENTRICITY":0.0001096,"INCLINATION":51.9074,"RA_OF_ASC_NODE":178.144,"ARG_OF_PERICENTER":156.2349,"MEAN_ANOMALY":203.8665,"EPHEMERIS_TYPE":0,"CLASSIFICATION_TYPE":"U","NORAD_CAT_ID":65146,"ELEMENT_SET_NO":999,"REV_AT_EPOCH":3227,"BSTAR":0.00025824,"MEAN_MOTION_DOT":1.748e-5,"MEAN_MOTION_DDOT":0},{"OBJECT_NAME":"KUIPER-00109","OBJECT_ID":"2025-171R","EPOCH":"2026-03-05T11:50:14.860320","MEAN_MOTION":14.79928333,"ECCENTRICITY":4.62e-5,"INCLINATION":51.901,"RA_OF_ASC_NODE":174.1066,"ARG_OF_PERICENTER":50.7439,"MEAN_ANOMALY":309.3565,"EPHEMERIS_TYPE":0,"CLASSIFICATION_TYPE":"U","NORAD_CAT_ID":65147,"ELEMENT_SET_NO":999,"REV_AT_EPOCH":3230,"BSTAR":-2.5756e-5,"MEAN_MOTION_DOT":-4.17e-6,"MEAN_MOTION_DDOT":0},{"OBJECT_NAME":"KUIPER-00110","OBJECT_ID":"2025-171S","EPOCH":"2026-03-05T13:58:15.790944","MEAN_MOTION":14.7993419,"ECCENTRICITY":0.0001951,"INCLINATION":51.9001,"RA_OF_ASC_NODE":186.3117,"ARG_OF_PERICENTER":177.53,"MEAN_ANOMALY":182.5672,"EPHEMERIS_TYPE":0,"CLASSIFICATION_TYPE":"U","NORAD_CAT_ID":65148,"ELEMENT_SET_NO":999,"REV_AT_EPOCH":3213,"BSTAR":0.0009141,"MEAN_MOTION_DOT":6.754e-5,"MEAN_MOTION_DDOT":0},{"OBJECT_NAME":"KUIPER-00111","OBJECT_ID":"2025-171T","EPOCH":"2026-03-05T12:59:57.632064","MEAN_MOTION":14.80024692,"ECCENTRICITY":0.0001881,"INCLINATION":51.8967,"RA_OF_ASC_NODE":191.387,"ARG_OF_PERICENTER":141.7197,"MEAN_ANOMALY":218.3899,"EPHEMERIS_TYPE":0,"CLASSIFICATION_TYPE":"U","NORAD_CAT_ID":65149,"ELEMENT_SET_NO":999,"REV_AT_EPOCH":3206,"BSTAR":0.0008815,"MEAN_MOTION_DOT":6.52e-5,"MEAN_MOTION_DDOT":0},{"OBJECT_NAME":"KUIPER-00112","OBJECT_ID":"2025-171U","EPOCH":"2026-03-05T14:16:07.173408","MEAN_MOTION":14.80004397,"ECCENTRICITY":2.91e-5,"INCLINATION":51.9027,"RA_OF_ASC_NODE":173.7139,"ARG_OF_PERICENTER":91.0375,"MEAN_ANOMALY":269.0621,"EPHEMERIS_TYPE":0,"CLASSIFICATION_TYPE":"U","NORAD_CAT_ID":65150,"ELEMENT_SET_NO":999,"REV_AT_EPOCH":3231,"BSTAR":0.00093141,"MEAN_MOTION_DOT":6.899e-5,"MEAN_MOTION_DDOT":0},{"OBJECT_NAME":"KUIPER-00114","OBJECT_ID":"2025-171V","EPOCH":"2026-03-05T14:33:40.016160","MEAN_MOTION":14.7992597,"ECCENTRICITY":0.0001229,"INCLINATION":51.9004,"RA_OF_ASC_NODE":193.6577,"ARG_OF_PERICENTER":136.0472,"MEAN_ANOMALY":224.0588,"EPHEMERIS_TYPE":0,"CLASSIFICATION_TYPE":"U","NORAD_CAT_ID":65151,"ELEMENT_SET_NO":999,"REV_AT_EPOCH":3203,"BSTAR":-0.00048775,"MEAN_MOTION_DOT":-3.937e-5,"MEAN_MOTION_DDOT":0},{"OBJECT_NAME":"KUIPER-00115","OBJECT_ID":"2025-171W","EPOCH":"2026-03-05T13:07:52.416480","MEAN_MOTION":14.79944108,"ECCENTRICITY":6.43e-5,"INCLINATION":51.8979,"RA_OF_ASC_NODE":186.4028,"ARG_OF_PERICENTER":104.1536,"MEAN_ANOMALY":255.9498,"EPHEMERIS_TYPE":0,"CLASSIFICATION_TYPE":"U","NORAD_CAT_ID":65152,"ELEMENT_SET_NO":999,"REV_AT_EPOCH":3213,"BSTAR":0.00017988,"MEAN_MOTION_DOT":1.151e-5,"MEAN_MOTION_DDOT":0},{"OBJECT_NAME":"KUIPER-00116","OBJECT_ID":"2025-171X","EPOCH":"2026-03-05T15:26:08.964384","MEAN_MOTION":14.79931574,"ECCENTRICITY":0.0001073,"INCLINATION":51.8999,"RA_OF_ASC_NODE":191.0223,"ARG_OF_PERICENTER":131.9516,"MEAN_ANOMALY":228.1538,"EPHEMERIS_TYPE":0,"CLASSIFICATION_TYPE":"U","NORAD_CAT_ID":65153,"ELEMENT_SET_NO":999,"REV_AT_EPOCH":3207,"BSTAR":0.00097273,"MEAN_MOTION_DOT":7.202e-5,"MEAN_MOTION_DDOT":0},{"OBJECT_NAME":"KUIPER-00118","OBJECT_ID":"2025-171Y","EPOCH":"2026-03-05T18:36:24.477984","MEAN_MOTION":14.80022553,"ECCENTRICITY":5.19e-5,"INCLINATION":51.8995,"RA_OF_ASC_NODE":192.8917,"ARG_OF_PERICENTER":77.6506,"MEAN_ANOMALY":282.4515,"EPHEMERIS_TYPE":0,"CLASSIFICATION_TYPE":"U","NORAD_CAT_ID":65154,"ELEMENT_SET_NO":999,"REV_AT_EPOCH":3206,"BSTAR":0.00094244,"MEAN_MOTION_DOT":6.986e-5,"MEAN_MOTION_DDOT":0},{"OBJECT_NAME":"KUIPER-00119","OBJECT_ID":"2025-171Z","EPOCH":"2026-03-05T14:04:24.108960","MEAN_MOTION":14.79989654,"ECCENTRICITY":0.0001057,"INCLINATION":51.9015,"RA_OF_ASC_NODE":181.3145,"ARG_OF_PERICENTER":141.5889,"MEAN_ANOMALY":218.5148,"EPHEMERIS_TYPE":0,"CLASSIFICATION_TYPE":"U","NORAD_CAT_ID":65155,"ELEMENT_SET_NO":999,"REV_AT_EPOCH":3220,"BSTAR":0.00088522,"MEAN_MOTION_DOT":6.543e-5,"MEAN_MOTION_DDOT":0},{"OBJECT_NAME":"KUIPER-00120","OBJECT_ID":"2025-217A","EPOCH":"2026-03-05T18:00:00.998784","MEAN_MOTION":14.79982518,"ECCENTRICITY":3.91e-5,"INCLINATION":51.898,"RA_OF_ASC_NODE":70.4894,"ARG_OF_PERICENTER":103.8578,"MEAN_ANOMALY":226.2558,"EPHEMERIS_TYPE":0,"CLASSIFICATION_TYPE":"U","NORAD_CAT_ID":65762,"ELEMENT_SET_NO":999,"REV_AT_EPOCH":384,"BSTAR":-0.0028731,"MEAN_MOTION_DOT":-0.00022077,"MEAN_MOTION_DDOT":0}]
